IRIDIUM 171             
1 43929U 19002H   24314.15227342  .00001219  00000+0  42802-3 0  9990
2 43929  86.3995 238.2534 0002157  72.9213 287.2219 14.34217347305101
IRIDIUM 170             
1 43930U 19002J   24313.28350273  .00004779  00000+0  75446-3 0  9999
2 43930  86.6118 238.4098 0002274  82.6926 277.4549 14.72206321313051
IRIDIUM 167             
1 43931U 19002K   24313.72735094  .00001533  00000+0  54006-3 0  9991
2 43931  86.3987 238.2064 0002433  74.7113 285.4351 14.34218686305046
IRIDIUM 181             
1 56726U 23068S   24314.04814103  .00000753  00000+0  21658-3 0  9999
2 56726  86.8581 298.8623 0002253  79.1437 281.0018 14.43594310 78037
IRIDIUM 177             
1 56727U 23068T   24313.62219002  .00006684  00000+0  87620-3 0  9990
2 56727  86.1965 246.7504 0002318  84.4348 275.7138 14.80206715 79741
IRIDIUM 174             
1 56728U 23068U   24313.54907306  .00006495  00000+0  85098-3 0  9990
2 56728  86.1978 246.9000 0002476  82.0964 278.0538 14.80221396 79733
IRIDIUM 178             
1 56729U 23068V   24314.35505479  .00007247  00000+0  94976-3 0  9997
2 56729  86.5746 270.8633 0003245  77.9768 282.1817 14.80225921 79856
IRIDIUM 179             
1 56730U 23068W   24313.80871041  .00005921  00000+0  77434-3 0  9996
2 56730  86.6753 277.0565 0003176  79.4279 280.7300 14.80289240 79773
